{
    "links": {
        "self": "http://www.neowsapp.com/rest/v1/neo/3766121?api_key=iIulBulltgU6a56xZRHN4H3l9WmuAYTsLGpBGhQ2"
    },
    "id": "3766121",
    "neo_reference_id": "3766121",
    "name": "(2016 YL3)",
    "designation": "2016 YL3",
    "nasa_jpl_url": "http://ssd.jpl.nasa.gov/sbdb.cgi?sstr=3766121",
    "absolute_magnitude_h": 25.3,
    "estimated_diameter": {
        "kilometers": {
            "estimated_diameter_min": 0.0231502122,
            "estimated_diameter_max": 0.0517654482
        },
        "meters": {
            "estimated_diameter_min": 23.150212221,
            "estimated_diameter_max": 51.7654482198
        },
        "miles": {
            "estimated_diameter_min": 0.0143848705,
            "estimated_diameter_max": 0.0321655483
        },
        "feet": {
            "estimated_diameter_min": 75.9521422633,
            "estimated_diameter_max": 169.8341531374
        }
    },
    "is_potentially_hazardous_asteroid": false,
    "close_approach_data": [
        {
            "close_approach_date": "2014-08-26",
            "close_approach_date_full": "2014-Aug-26 07:32",
            "epoch_date_close_approach": 1409038320000,
            "relative_velocity": {
                "kilometers_per_second": "12.1929377122",
                "kilometers_per_hour": "43894.5757639646",
                "miles_per_hour": "27274.3823684479"
            },
            "miss_distance": {
                "astronomical": "0.1145172999",
                "lunar": "44.5472296611",
                "kilometers": "17131544.143191213",
                "miles": "10645047.9131482194"
            },
            "orbiting_body": "Earth"
        },
        {
            "close_approach_date": "2016-08-13",
            "close_approach_date_full": "2016-Aug-13 18:11",
            "epoch_date_close_approach": 1471111860000,
            "relative_velocity": {
                "kilometers_per_second": "4.0001422925",
                "kilometers_per_hour": "14400.5122528838",
                "miles_per_hour": "8947.918294021"
            },
            "miss_distance": {
                "astronomical": "0.4853943065",
                "lunar": "188.8183852285",
                "kilometers": "72613954.362527155",
                "miles": "45120218.988518539"
            },
            "orbiting_body": "Earth"
        },
        {
            "close_approach_date": "2016-12-16",
            "close_approach_date_full": "2016-Dec-16 13:09",
            "epoch_date_close_approach": 1481893740000,
            "relative_velocity": {
                "kilometers_per_second": "10.4217178963",
                "kilometers_per_hour": "37518.1844267876",
                "miles_per_hour": "23312.3407623004"
            },
            "miss_distance": {
                "astronomical": "0.0404940946",
                "lunar": "15.7522027994",
                "kilometers": "6057830.299738502",
                "miles": "3764161.2017832476"
            },
            "orbiting_body": "Earth"
        },
        {
            "close_approach_date": "2019-01-16",
            "close_approach_date_full": "2019-Jan-16 18:34",
            "epoch_date_close_approach": 1547663640000,
            "relative_velocity": {
                "kilometers_per_second": "25.2333560851",
                "kilometers_per_hour": "90840.0819062729",
                "miles_per_hour": "56444.4942267061"
            },
            "miss_distance": {
                "astronomical": "0.4904931646",
                "lunar": "190.8018410294",
                "kilometers": "73376732.673719402",
                "miles": "45594187.4528836676"
            },
            "orbiting_body": "Earth"
        },
        {
            "close_approach_date": "2195-08-12",
            "close_approach_date_full": "2195-Aug-12 00:15",
            "epoch_date_close_approach": 7119620100000,
            "relative_velocity": {
                "kilometers_per_second": "20.4882747402",
                "kilometers_per_hour": "73757.7890648132",
                "miles_per_hour": "45830.2217664113"
            },
            "miss_distance": {
                "astronomical": "0.3569639066",
                "lunar": "138.8589596674",
                "kilometers": "53401040.094238942",
                "miles": "33181867.6509117196"
            },
            "orbiting_body": "Earth"
        }
    ],
    "orbital_data": {
        "orbit_id": "5",
        "orbit_determination_date": "2017-04-06 08:21:21",
        "first_observation_date": "2016-12-23",
        "last_observation_date": "2017-01-08",
        "data_arc_in_days": 16,
        "observations_used": 32,
        "orbit_uncertainty": "7",
        "minimum_orbit_intersection": ".0377938",
        "jupiter_tisserand_invariant": "4.181",
        "epoch_osculation": "2459000.5",
        "eccentricity": ".4595520949034311",
        "semi_major_axis": "1.628883024899296",
        "inclination": "6.822177456847932",
        "ascending_node_longitude": "283.6580227274237",
        "orbital_period": "759.3347459869162",
        "perihelion_distance": ".8803264184541869",
        "perihelion_argument": "111.455029680104",
        "aphelion_distance": "2.377439631344405",
        "perihelion_time": "2459219.736394356853",
        "mean_anomaly": "256.0601995554845",
        "mean_motion": ".4740992057884877",
        "equinox": "J2000",
        "orbit_class": {
            "orbit_class_type": "APO",
            "orbit_class_description": "Near-Earth asteroid orbits which cross the Earth’s orbit similar to that of 1862 Apollo",
            "orbit_class_range": "a (semi-major axis) > 1.0 AU; q (perihelion) < 1.017 AU"
        }
    },
    "is_sentry_object": false
}